QZS-1R                  
1 49336U 21096A   24093.88088424 -.00000198  00000+0  00000+0 0  9990
2 49336  35.7888  91.6677 0751316 269.9859 281.6735  1.00284950  8934
